OBJECT_NAME,OBJECT_ID,EPOCH,MEAN_MOTION,ECCENTRICITY,INCLINATION,RA_OF_ASC_NODE,ARG_OF_PERICENTER,MEAN_ANOMALY,EPHEMERIS_TYPE,CLASSIFICATION_TYPE,NORAD_CAT_ID,ELEMENT_SET_NO,REV_AT_EPOCH,BSTAR,MEAN_MOTION_DOT,MEAN_MOTION_DDOT
STARLINK-3618,2022-025AU,2026-07-07T12:00:02.998944,15.24136694,.0002335,53.1591,200.4549,70.6322,96.1684,0,U,51998,999,583,.34131E-2,.84722E-3,0
STARLINK-3653,2022-025AW,2026-07-07T10:41:26.598336,15.08828411,.000108,53.1584,201.2102,88.6186,271.4929,0,U,52000,999,23900,.40996E-4,.364E-5,0
STARLINK-3659,2022-025AX,2026-07-07T10:58:43.876128,15.08833768,.0001382,53.1584,201.2582,59.5731,300.5396,0,U,52001,999,23900,.19769E-4,.27E-6,0
STARLINK-3668,2022-025AY,2026-07-07T10:57:21.792672,15.08836621,.0000997,53.1586,201.2861,93.0868,267.0237,0,U,52002,999,23900,-.75816E-4,-.1494E-4,0
STARLINK-3712,2022-029C,2026-07-07T12:00:02.998944,15.14232634,.0001277,53.1601,270.9575,148.5499,212.5973,0,U,52090,999,588,.989E-3,.18026E-3,0
STARLINK-3716,2022-029E,2026-07-07T12:00:02.998944,15.13377224,.0002411,53.1605,270.9936,127.2001,195.3505,0,U,52092,999,593,.12846E-2,.22958E-3,0
STARLINK-3673,2022-029F,2026-07-07T12:00:02.998944,15.35405647,.0001118,53.1600,268.1914,56.7826,327.0365,0,U,52093,999,593,-.26255E-3,-.9529E-4,0
STARLINK-3714,2022-029G,2026-07-07T12:00:02.998944,15.14262684,.0000738,53.1595,270.9782,127.8075,242.8320,0,U,52094,999,583,.11209E-2,.20495E-3,0
STARLINK-3701,2022-029H,2026-07-07T12:00:02.998944,15.33419675,.0001042,53.1592,268.5262,84.2714,168.5104,0,U,52095,999,584,.13204E-2,.43126E-3,0
STARLINK-3717,2022-029J,2026-07-07T12:00:02.998944,15.23503915,.0000938,53.1590,259.9854,96.3824,242.2235,0,U,52096,999,583,.1307E-2,.31397E-3,0
STARLINK-3665,2022-029L,2026-07-07T05:34:57.382176,15.09140772,.0001405,53.1604,272.2520,65.7570,294.3568,0,U,52098,999,23870,.22779E-2,.36455E-3,0
STARLINK-3702,2022-029N,2026-07-07T12:00:02.998944,15.33142979,.0001031,53.1592,268.5395,75.5162,191.4173,0,U,52100,999,589,.13031E-2,.42177E-3,0
STARLINK-3703,2022-029P,2026-07-07T12:00:02.998944,15.10882355,.0002704,53.1594,271.2203,26.6157,338.1084,0,U,52101,999,583,.13159E-2,.2193E-3,0
STARLINK-3709,2022-029Q,2026-07-07T12:00:02.998944,15.28363978,.0001426,53.1590,259.9581,85.6223,162.0259,0,U,52102,999,589,.1402E-2,.39099E-3,0
STARLINK-3705,2022-029R,2026-07-07T12:00:02.998944,15.28490752,.0001121,53.1593,259.9262,44.7024,5.1995,0,U,52103,999,588,.24162E-2,.68167E-3,0
STARLINK-3706,2022-029T,2026-07-07T12:00:02.998944,15.25694192,.0001616,53.1607,259.9025,64.3256,31.7814,0,U,52105,999,548,.12607E-2,.32341E-3,0
STARLINK-3670,2022-029U,2026-07-07T05:18:54.271872,15.34373020,.0000827,53.1598,269.5770,96.7481,263.3616,0,U,52106,999,23872,.55293E-4,.1491E-4,0
STARLINK-3658,2022-029V,2026-07-07T12:00:02.998944,15.23813227,.0000811,53.1604,259.9622,60.9196,30.8745,0,U,52107,999,593,.12089E-2,.29278E-3,0
STARLINK-3698,2022-029W,2026-07-07T12:00:02.998944,15.28401167,.0002223,53.1608,259.8461,67.3511,42.8530,0,U,52108,999,578,.23989E-2,.67487E-3,0
STARLINK-3687,2022-029Y,2026-07-07T12:00:02.998944,15.27517588,.0002063,53.1609,259.9023,60.0825,41.2474,0,U,52110,999,583,.25463E-2,.69764E-3,0
STARLINK-3708,2022-029Z,2026-07-07T12:00:02.998944,15.27194721,.0002346,53.1608,259.9451,76.0747,82.8743,0,U,52111,999,588,.25494E-2,.69161E-3,0
STARLINK-3734,2022-029AA,2026-07-07T12:00:02.998944,15.64483992,.0001154,53.2169,241.4812,57.9144,254.5595,0,U,52112,999,600,.14586E-2,.144968E-2,0
STARLINK-3736,2022-029AB,2026-07-07T12:00:02.998944,15.28431909,.0001203,53.1665,259.4859,75.1561,0.9116,0,U,52113,999,588,.20514E-1,.617593E-2,0
STARLINK-3737,2022-029AC,2026-07-07T12:00:02.998944,15.27904366,.0001327,53.1596,259.7368,56.0949,190.0208,0,U,52114,999,588,.12116E-2,.33241E-3,0
STARLINK-3685,2022-029AD,2026-07-07T12:00:02.998944,15.35389641,.0001175,53.1590,258.2650,71.9434,310.0445,0,U,52115,999,564,.14886E-3,.4814E-4,0
STARLINK-3735,2022-029AE,2026-07-07T12:00:02.998944,15.28663276,.0000046,53.1589,259.6468,327.6950,4.5055,0,U,52116,999,588,.25247E-2,.71657E-3,0
STARLINK-3738,2022-029AF,2026-07-07T12:00:02.998944,15.27300598,.0000509,53.1592,259.7461,62.6422,320.0197,0,U,52117,999,589,.11963E-2,.3221E-3,0
STARLINK-3743,2022-029AG,2026-07-07T12:00:02.998944,15.28265996,.0001153,53.1592,259.8688,129.0241,128.8340,0,U,52118,999,584,.27977E-2,.78555E-3,0
STARLINK-3558,2022-029AH,2026-07-07T12:00:02.998944,15.34934439,.0000648,53.1593,258.4781,58.3991,295.4671,0,U,52119,999,593,.23364E-2,.80782E-3,0
STARLINK-3534,2022-029AJ,2026-07-07T00:00:02.998944,15.34362090,.0000966,53.1582,260.4593,96.8774,131.5796,0,U,52120,999,565,.91946E-3,.30779E-3,0
STARLINK-3678,2022-029AK,2026-07-07T04:45:05.352768,15.08826009,.0001129,53.1587,252.4098,94.6347,265.4773,0,U,52121,999,23896,-.12036E-4,-.479E-5,0
STARLINK-3726,2022-029AL,2026-07-07T12:00:02.998944,15.25682558,.0001445,53.1590,259.8771,84.2987,251.1530,0,U,52122,999,593,.13367E-2,.34309E-3,0
STARLINK-3725,2022-029AM,2026-07-07T04:09:19.511136,15.08862211,.000129,53.1597,252.3422,88.8606,271.2533,0,U,52123,999,23897,-.40652E-4,-.935E-5,0
STARLINK-3727,2022-029AP,2026-07-07T04:29:12.474816,15.08823497,.0001309,53.1610,252.4572,110.9173,249.1959,0,U,52125,999,23897,-.10843E-3,-.2012E-4,0
STARLINK-3732,2022-029AQ,2026-07-06T11:10:32.490048,15.08821987,.0001146,53.1588,255.7017,84.6145,275.4977,0,U,52126,999,23885,.29773E-4,.186E-5,0
STARLINK-3715,2022-029AR,2026-07-07T04:23:54.153024,15.08827088,.0001177,53.1598,252.4765,105.0972,255.0150,0,U,52127,999,23896,-.1075E-3,-.1998E-4,0
STARLINK-3661,2022-029AT,2026-07-06T12:19:27.105024,15.08823028,.0001051,53.1579,255.4866,83.1069,277.0042,0,U,52129,999,23887,-.9958E-4,-.1872E-4,0
STARLINK-3711,2022-029AV,2026-07-06T10:47:51.773856,15.19483258,.0000764,53.2145,247.6739,318.4623,41.6316,0,U,52131,999,23898,.78972E-3,.16683E-3,0
STARLINK-3718,2022-029AW,2026-07-07T04:18:36.465408,15.08825426,.0001045,53.1601,252.4920,92.5298,267.5813,0,U,52132,999,23897,-.10266E-3,-.1921E-4,0
STARLINK-3707,2022-029AX,2026-07-06T10:28:10.519968,15.08819371,.0001118,53.1586,255.8315,80.8954,279.2164,0,U,52133,999,23886,-.10826E-3,-.2009E-4,0
STARLINK-3721,2022-029AY,2026-07-06T12:08:51.241632,15.08824560,.0001352,53.1589,255.5199,87.0188,273.0958,0,U,52134,999,23887,-.10427E-3,-.1946E-4,0
STARLINK-3720,2022-029BA,2026-07-07T03:52:05.674656,15.08835089,.0000715,53.1555,252.5706,16.9355,343.1661,0,U,52136,999,23897,.4662E-4,.454E-5,0
STARLINK-3733,2022-029BB,2026-07-07T05:11:36.603168,15.08809427,.0000905,53.1588,252.3260,93.4252,266.6843,0,U,52137,999,23898,.54367E-4,.577E-5,0
STARLINK-3723,2022-029BC,2026-07-06T11:52:57.648288,15.08820685,.0000987,53.1590,255.5699,101.0690,259.0413,0,U,52138,999,23887,-.99757E-4,-.1874E-4,0
STARLINK-3730,2022-029BD,2026-07-07T12:00:02.998944,15.28397099,.0000374,53.1592,259.9530,51.1249,323.5276,0,U,52139,999,573,.23605E-2,.66382E-3,0
STARLINK-3682,2022-029BE,2026-07-07T03:30:55.204992,15.08822640,.0000821,53.1588,252.6390,109.3356,250.7724,0,U,52140,999,23897,-.95273E-4,-.1803E-4,0
STARLINK-3761,2022-041B,2026-07-07T06:36:23.166432,15.08827983,.000136,53.1593,292.0134,86.7263,273.3884,0,U,52262,999,23241,-.59674E-4,-.1237E-4,0
STARLINK-3786,2022-041C,2026-07-07T06:41:40.541280,15.08844087,.0001118,53.1605,292.0478,96.3539,263.7580,0,U,52263,999,23241,.47175E-4,.463E-5,0
STARLINK-3795,2022-041D,2026-07-07T12:00:02.998944,15.34401213,.0001282,53.1584,288.5750,80.6054,276.7177,0,U,52264,999,578,-.51308E-3,-.17672E-3,0
STARLINK-3740,2022-041E,2026-07-07T12:00:02.998944,15.23329641,.0001553,53.1589,290.3075,70.6164,136.8585,0,U,52265,999,593,.81646E-3,.19354E-3,0
STARLINK-3739,2022-041F,2026-07-07T07:33:00.389376,15.10015699,.0001348,53.2143,291.9289,28.6504,331.4562,0,U,52266,999,23242,.60352E-3,.9643E-4,0
STARLINK-3748,2022-041G,2026-07-07T12:00:02.998944,15.21122679,.0001432,53.1595,290.4909,61.4590,94.4325,0,U,52267,999,583,.57763E-3,.12713E-3,0
STARLINK-3746,2022-041H,2026-07-07T12:00:02.998944,15.26507369,.0001853,53.1607,289.9759,67.0721,51.9509,0,U,52268,999,588,.67255E-3,.17488E-3,0
STARLINK-3791,2022-041J,2026-07-06T14:16:02.555328,15.08821137,.0001304,53.1591,295.1228,97.5650,262.5489,0,U,52269,999,23231,-.94181E-4,-.1786E-4,0
STARLINK-3804,2022-041K,2026-07-07T07:34:41.435904,15.08813450,.0001048,53.1594,291.9102,96.8345,263.2766,0,U,52270,999,23242,.1317E-3,.1807E-4,0
STARLINK-3788,2022-041L,2026-07-07T07:39:59.170176,15.08812004,.0001281,53.1596,291.8649,89.4692,270.6447,0,U,52271,999,23242,.18815E-3,.2706E-4,0
STARLINK-3781,2022-041M,2026-07-07T12:00:02.998944,15.29366204,.000086,53.1603,289.9665,77.4154,80.2555,0,U,52272,999,588,-.61566E-3,-.18083E-3,0
STARLINK-3782,2022-041N,2026-07-07T12:00:02.998944,15.25804783,.0001302,53.1589,280.8259,38.1414,10.3264,0,U,52273,999,593,.20511E-2,.53162E-3,0
STARLINK-3790,2022-041P,2026-07-07T12:00:02.998944,15.28679294,.0001077,53.1604,290.1897,66.5054,2.2002,0,U,52274,999,583,.17464E-2,.49332E-3,0
STARLINK-3784,2022-041Q,2026-07-07T07:29:22.130016,15.08822975,.0000973,53.1593,291.8966,98.4237,261.6865,0,U,52275,999,23242,.87599E-4,.1106E-4,0
STARLINK-3778,2022-041R,2026-07-07T07:13:28.134048,15.08826024,.00013,53.1616,291.9490,91.3611,268.7529,0,U,52276,999,23242,-.47428E-5,-.363E-5,0
STARLINK-3780,2022-041T,2026-07-07T07:08:10.378176,15.08829612,.0000957,53.1612,291.9648,89.9275,270.1826,0,U,52278,999,23242,-.75901E-4,-.1495E-4,0
STARLINK-3764,2022-041V,2026-07-07T12:00:02.998944,15.26501671,.0000852,53.1610,290.1521,66.9366,119.8409,0,U,52280,999,593,.12095E-2,.31783E-3,0
STARLINK-3779,2022-041W,2026-07-07T07:14:51.072000,15.08827674,.000118,53.1607,291.9420,104.4633,255.6489,0,U,52281,999,23242,-.82978E-4,-.1608E-4,0
STARLINK-3783,2022-041X,2026-07-07T12:00:02.998944,15.14297549,.0000575,53.1597,280.9066,190.7155,3.0945,0,U,52282,999,589,.10276E-2,.18778E-3,0
STARLINK-3789,2022-041Y,2026-07-07T07:02:52.630080,15.08829551,.0001113,53.1604,291.9785,93.7259,266.3860,0,U,52283,999,23242,-.9155E-4,-.1744E-4,0
